GLOBALSTAR M068 [-]     
1 32266U 07048D   24040.09892587 -.00000049  00000+0  30594-3 0  9993
2 32266  51.9913   8.3450 0001020 114.6277 327.0451 12.62778468755134
GLOBALSTAR M079 [+]     
1 37188U 10054A   24040.62689132 -.00000109  00000+0 -26387-4 0  9995
2 37188  52.0013 202.2624 0000734  92.3152 346.5292 12.62266434614125
GLOBALSTAR M074 [+]     
1 37189U 10054B   24040.48528708 -.00000121  00000+0 -94435-4 0  9994
2 37189  51.9990 202.0930 0001031  96.5947 298.1112 12.62265144614710
GLOBALSTAR M076 [+]     
1 37190U 10054C   24040.60037509 -.00000105  00000+0 -51799-5 0  9993
2 37190  52.0004 201.8713 0001037  65.7735  10.6638 12.62274676614445
GLOBALSTAR M077 [+]     
1 37191U 10054D   24040.50851588 -.00000112  00000+0 -44962-4 0  9995
2 37191  52.0063 158.8636 0000951 107.3606 331.8180 12.62269274614808
GLOBALSTAR M075 [+]     
1 37192U 10054E   24040.52106157 -.00000081  00000+0  12551-3 0  9995
2 37192  51.9923 244.6461 0000791  80.9847 295.1323 12.62270614613661
GLOBALSTAR M073 [+]     
1 37193U 10054F   24040.61925372 -.00000108  00000+0 -24536-4 0  9992
2 37193  52.0052 157.7832 0000830 106.8838 357.9474 12.62272061615502
GLOBALSTAR M083 [+]     
1 37739U 11033A   24040.38971324 -.00000086  00000+0  97523-4 0  9998
2 37739  51.9853 107.8899 0000659 142.7515 297.9673 12.62265727584492
GLOBALSTAR M088 [+]     
1 37740U 11033B   24040.12555604 -.00000108  00000+0 -24503-4 0  9995
2 37740  51.9759  14.6007 0000102 115.5205 324.8233 12.62264528580005
GLOBALSTAR M091 [+]     
1 37741U 11033C   24040.23682775 -.00000080  00000+0  13335-3 0  9996
2 37741  52.0024 336.9357 0000160  61.7391 104.0507 12.62270901580805
GLOBALSTAR M085 [+]     
1 37742U 11033D   24040.14423767 -.00000059  00000+0  25010-3 0  9990
2 37742  51.9869 288.6958 0000492  74.3634  90.0267 12.62267589581300
GLOBALSTAR M081 [+]     
1 37743U 11033E   24040.17081010 -.00000056  00000+0  26549-3 0  9990
2 37743  51.9961 291.0964 0000489  48.2148 117.3839 12.62269347581453
GLOBALSTAR M089 [+]     
1 37744U 11033F   24040.49206646 -.00000082  00000+0  11894-3 0  9996
2 37744  51.9905 244.4369 0001071  64.3977 301.9613 12.62254287582347
GLOBALSTAR M084 [+]     
1 38040U 11080A   24040.52777657 -.00000079  00000+0  14027-3 0  9994
2 38040  52.0004 111.3535 0000755  97.1395  10.7729 12.62270722560321
GLOBALSTAR M080 [+]     
1 38041U 11080B   24040.59017603 -.00000077  00000+0  14670-3 0  9992
2 38041  52.0055 112.5977 0000682  83.2533  67.7785 12.62268817560450
GLOBALSTAR M082 [+]     
1 38042U 11080C   24040.27097400 -.00000082  00000+0  12071-3 0  9990
2 38042  52.0080  68.9624 0000855 161.6058 278.7972 12.62265834561120
GLOBALSTAR M092 [+]     
1 38043U 11080D   24040.48165500 -.00000108  00000+0 -21365-4 0  9998
2 38043  52.0075 158.6734 0001074 101.6889 334.8835 12.62276354559605
GLOBALSTAR M090 [+]     
1 38044U 11080E   24040.47036427 -.00000080  00000+0  13104-3 0  9992
2 38044  51.9891  62.7989 0000484 151.4923 356.3088 12.62266029561265
GLOBALSTAR M086 [+]     
1 38045U 11080F   24040.50051753 -.00000078  00000+0  14474-3 0  9994
2 38045  51.9902  63.2207 0000573 307.1500 217.0050 12.62267066561217
GLOBALSTAR M097 [+]     
1 39072U 13005A   24040.09473409 -.00000093  00000+0  57521-4 0  9992
2 39072  52.0073 338.5014 0000193  54.5558 305.5327 12.62260399508412
GLOBALSTAR M093 [+]     
1 39073U 13005B   24040.06822075 -.00000082  00000+0  12301-3 0  9991
2 39073  51.9837 332.6761 0000155  32.8345 327.2531 12.62260640508365
GLOBALSTAR M094 [+]     
1 39074U 13005C   24039.98911996 -.00000070  00000+0  18965-3 0  9991
2 39074  51.9935 246.8052 0000709  80.2271 279.8676 12.62262943509961
GLOBALSTAR M096 [+]     
1 39075U 13005D   24040.08168164 -.00000055  00000+0  27409-3 0  9992
2 39075  52.0079 294.6548 0000409  57.3774 302.7132 12.62272400508897
GLOBALSTAR M078 [+]     
1 39076U 13005E   24040.21385926 -.00000103  00000+0  21772-5 0  9998
2 39076  51.9895  19.4316 0001095 146.4948 213.5988 12.62259621507531
GLOBALSTAR M095 [+]     
1 39077U 13005F   24040.39818270 -.00000104  00000+0  21889-6 0  9992
2 39077  51.9826  16.3096 0000544 176.4212 183.6659 12.62263006507413
GLOBALSTAR M087 [+]     
1 52888U 22064A   24040.13677624 -.00000053  00000+0  14242-3 0  9995
2 52888  51.9765 298.3736 0010080  39.3485 320.8147 13.37564742 80257
